{
  "type": "FeatureCollection",
  "features": [
    {
      "type": "Feature",
      "properties": {
        "norad_id": 35026,
        "name": "COSMOS 2251 DEB",
        "group": "cosmos-2251-debris",
        "lat": 20.88772182222316,
        "lon": 108.61930127103037,
        "alt_km": 736.2050548401912,
        "timestamp": "2025-12-25T09:48:52.684947+00:00",
        "meta_object_name": "COSMOS 2251 DEB",
        "meta_object_id": "1993-036AGP",
        "meta_epoch": "2025-12-25T02:35:01.847328",
        "meta_mean_motion": 14.53631376,
        "meta_eccentricity": 0.0082632,
        "meta_inclination": 74.0477,
        "meta_ra_of_asc_node": 295.4544,
        "meta_arg_of_pericenter": 45.4243,
        "meta_mean_anomaly": 335.8431,
        "meta_ephemeris_type": 0,
        "meta_classification_type": "U",
        "meta_norad_cat_id": 35026,
        "meta_element_set_no": 999,
        "meta_rev_at_epoch": 88323,
        "meta_bstar": 8.4827e-05,
        "meta_mean_motion_dot": 3.41e-06,
        "meta_mean_motion_ddot": 0,
        "tle_line1": "1 35026U 93036AGP 25359.10766027  .00000341  00000+0  84827-4 0  9990",
        "tle_line2": "2 35026  74.0477 295.4544 0082632  45.4243 335.8431 14.53631376883233"
      },
      "geometry": {
        "type": "Point",
        "coordinates": [
          108.61930127103037,
          20.88772182222316
        ]
      }
    },
    {
      "type": "Feature",
      "properties": {
        "norad_id": 35028,
        "name": "COSMOS 2251 DEB",
        "group": "cosmos-2251-debris",
        "lat": 42.421400690662324,
        "lon": -97.89643865959724,
        "alt_km": 648.2038862915952,
        "timestamp": "2025-12-25T09:48:52.684956+00:00",
        "meta_object_name": "COSMOS 2251 DEB",
        "meta_object_id": "1993-036AGR",
        "meta_epoch": "2025-12-21T04:06:01.501344",
        "meta_mean_motion": 14.56577596,
        "meta_eccentricity": 0.00828284,
        "meta_inclination": 74.0382,
        "meta_ra_of_asc_node": 254.9813,
        "meta_arg_of_pericenter": 26.387,
        "meta_mean_anomaly": 123.709,
        "meta_ephemeris_type": 0,
        "meta_classification_type": "U",
        "meta_norad_cat_id": 35028,
        "meta_element_set_no": 999,
        "meta_rev_at_epoch": 88408,
        "meta_bstar": 7.219211e-05,
        "meta_mean_motion_dot": 3.06e-06,
        "meta_mean_motion_ddot": 0,
        "tle_line1": "1 35028U 93036AGR 25355.17085071  .00000306  00000+0  72192-4 0  9991",
        "tle_line2": "2 35028  74.0382 254.9813 0082828  26.3870 123.7090 14.56577596884085"
      },
      "geometry": {
        "type": "Point",
        "coordinates": [
          -97.89643865959724,
          42.421400690662324
        ]
      }
    },
    {
      "type": "Feature",
      "properties": {
        "norad_id": 35031,
        "name": "COSMOS 2251 DEB",
        "group": "cosmos-2251-debris",
        "lat": -21.792682829426223,
        "lon": 62.49369833030323,
        "alt_km": 776.8651956540889,
        "timestamp": "2025-12-25T09:48:52.684966+00:00",
        "meta_object_name": "COSMOS 2251 DEB",
        "meta_object_id": "1993-036AGU",
        "meta_epoch": "2025-12-24T22:51:30.580992",
        "meta_mean_motion": 14.38306061,
        "meta_eccentricity": 0.0019335,
        "meta_inclination": 74.0374,
        "meta_ra_of_asc_node": 236.7632,
        "meta_arg_of_pericenter": 328.0242,
        "meta_mean_anomaly": 31.9737,
        "meta_ephemeris_type": 0,
        "meta_classification_type": "U",
        "meta_norad_cat_id": 35031,
        "meta_element_set_no": 999,
        "meta_rev_at_epoch": 65459,
        "meta_bstar": 0.00014948,
        "meta_mean_motion_dot": 4.29e-06,
        "meta_mean_motion_ddot": 0,
        "tle_line1": "1 35031U 93036AGU 25358.95243728  .00000429  00000+0  14948-3 0  9999",
        "tle_line2": "2 35031  74.0374 236.7632 0019335 328.0242  31.9737 14.38306061654591"
      },
      "geometry": {
        "type": "Point",
        "coordinates": [
          62.49369833030323,
          -21.792682829426223
        ]
      }
    },
    {
      "type": "Feature",
      "properties": {
        "norad_id": 35032,
        "name": "COSMOS 2251 DEB",
        "group": "cosmos-2251-debris",
        "lat": -69.87990507658881,
        "lon": -69.39252093807347,
        "alt_km": 703.824843209868,
        "timestamp": "2025-12-25T09:48:52.684976+00:00",
        "meta_object_name": "COSMOS 2251 DEB",
        "meta_object_id": "1993-036AGV",
        "meta_epoch": "2025-12-25T00:34:24.656736",
        "meta_mean_motion": 14.58814937,
        "meta_eccentricity": 0.0067489,
        "meta_inclination": 73.8522,
        "meta_ra_of_asc_node": 343.6153,
        "meta_arg_of_pericenter": 192.7121,
        "meta_mean_anomaly": 227.349,
        "meta_ephemeris_type": 0,
        "meta_classification_type": "U",
        "meta_norad_cat_id": 35032,
        "meta_element_set_no": 999,
        "meta_rev_at_epoch": 87853,
        "meta_bstar": 0.00082983,
        "meta_mean_motion_dot": 3.975e-05,
        "meta_mean_motion_ddot": 0,
        "tle_line1": "1 35032U 93036AGV 25359.02389649  .00003975  00000+0  82983-3 0  9995",
        "tle_line2": "2 35032  73.8522 343.6153 0067489 192.7121 227.3490 14.58814937878532"
      },
      "geometry": {
        "type": "Point",
        "coordinates": [
          -69.39252093807347,
          -69.87990507658881
        ]
      }
    },
    {
      "type": "Feature",
      "properties": {
        "norad_id": 35033,
        "name": "COSMOS 2251 DEB",
        "group": "cosmos-2251-debris",
        "lat": -48.68462730932593,
        "lon": 133.71986444762663,
        "alt_km": 722.4640992119112,
        "timestamp": "2025-12-25T09:48:52.684986+00:00",
        "meta_object_name": "COSMOS 2251 DEB",
        "meta_object_id": "1993-036AGW",
        "meta_epoch": "2025-12-19T05:07:27.625152",
        "meta_mean_motion": 14.50959586,
        "meta_eccentricity": 0.001448,
        "meta_inclination": 74.0251,
        "meta_ra_of_asc_node": 164.3945,
        "meta_arg_of_pericenter": 270.8601,
        "meta_mean_anomaly": 89.0901,
        "meta_ephemeris_type": 0,
        "meta_classification_type": "U",
        "meta_norad_cat_id": 35033,
        "meta_element_set_no": 999,
        "meta_rev_at_epoch": 66021,
        "meta_bstar": 0.00048139,
        "meta_mean_motion_dot": 1.877e-05,
        "meta_mean_motion_ddot": 0,
        "tle_line1": "1 35033U 93036AGW 25353.21351418  .00001877  00000+0  48139-3 0  9998",
        "tle_line2": "2 35033  74.0251 164.3945 0014480 270.8601  89.0901 14.50959586660212"
      },
      "geometry": {
        "type": "Point",
        "coordinates": [
          133.71986444762663,
          -48.68462730932593
        ]
      }
    },
    {
      "type": "Feature",
      "properties": {
        "norad_id": 35038,
        "name": "COSMOS 2251 DEB",
        "group": "cosmos-2251-debris",
        "lat": 0.1497799057572496,
        "lon": -160.2089621542218,
        "alt_km": 892.3120493356446,
        "timestamp": "2025-12-25T09:48:52.684996+00:00",
        "meta_object_name": "COSMOS 2251 DEB",
        "meta_object_id": "1993-036AHB",
        "meta_epoch": "2025-12-16T02:43:57.942048",
        "meta_mean_motion": 14.25166694,
        "meta_eccentricity": 0.01140711,
        "meta_inclination": 74.1077,
        "meta_ra_of_asc_node": 36.5236,
        "meta_arg_of_pericenter": 19.3791,
        "meta_mean_anomaly": 9.3469,
        "meta_ephemeris_type": 0,
        "meta_classification_type": "U",
        "meta_norad_cat_id": 35038,
        "meta_element_set_no": 999,
        "meta_rev_at_epoch": 85617,
        "meta_bstar": 0.00096319549,
        "meta_mean_motion_dot": 2.397e-05,
        "meta_mean_motion_ddot": 0,
        "tle_line1": "1 35038U 93036AHB 25350.11386507  .00002397  00000+0  96320-3 0  9999",
        "tle_line2": "2 35038  74.1077  36.5236 0114071  19.3791   9.3469 14.25166694856178"
      },
      "geometry": {
        "type": "Point",
        "coordinates": [
          -160.2089621542218,
          0.1497799057572496
        ]
      }
    },
    {
      "type": "Feature",
      "properties": {
        "norad_id": 35043,
        "name": "COSMOS 2251 DEB",
        "group": "cosmos-2251-debris",
        "lat": -49.6293112462331,
        "lon": -139.6108004110208,
        "alt_km": 576.8870364140921,
        "timestamp": "2025-12-25T09:48:52.685006+00:00",
        "meta_object_name": "COSMOS 2251 DEB",
        "meta_object_id": "1993-036AHG",
        "meta_epoch": "2025-12-21T08:52:47.877312",
        "meta_mean_motion": 14.7734035,
        "meta_eccentricity": 0.00957897,
        "meta_inclination": 73.9513,
        "meta_ra_of_asc_node": 28.5607,
        "meta_arg_of_pericenter": 236.5232,
        "meta_mean_anomaly": 122.6761,
        "meta_ephemeris_type": 0,
        "meta_classification_type": "U",
        "meta_norad_cat_id": 35043,
        "meta_element_set_no": 999,
        "meta_rev_at_epoch": 67546,
        "meta_bstar": 0.0026010267,
        "meta_mean_motion_dot": 0.00019965,
        "meta_mean_motion_ddot": 0,
        "tle_line1": "1 35043U 93036AHG 25355.36999858  .00019965  00000+0  26010-2 0  9993",
        "tle_line2": "2 35043  73.9513  28.5607 0095789 236.5232 122.6761 14.77340350675461"
      },
      "geometry": {
        "type": "Point",
        "coordinates": [
          -139.6108004110208,
          -49.6293112462331
        ]
      }
    }
  ]
}